AUTCUBE 2               
1 43681U 18084K   26068.48152820  .00005282  00000+0  33524-3 0  9991
2 43681  98.0799 269.3640 0009685  28.2406 331.9345 15.09319394401889
STARLINK-4593           
1 53633U 22104AX  26068.74735117  .00000361  00000+0  40774-4 0  9991
2 53633  53.2173 223.8871 0001198  90.7205 269.3924 15.08839163195909
